NORAD_CAT_ID,OBJECT_NAME,OBJECT_TYPE,EPOCH,MEAN_MOTION,ECCENTRICITY,INCLINATION,RA_OF_ASC_NODE,ARG_OF_PERICENTER,MEAN_ANOMALY,BSTAR,MEAN_MOTION_DOT,MEAN_MOTION_DDOT,TLE_LINE0,TLE_LINE1,TLE_LINE2,SEMIMAJOR_AXIS,PERIOD,APOGEE,PERIGEE,DECAYED
53420.0,STARLINK-4552,PAYLOAD,2023-11-25 01:18:13,15.08844309,0.0001269,53.2168,265.4288,87.2812,272.8326,-2.0428e-06,-3.2e-06,0.0,0 STARLINK-4552,1 53420U 22097AJ  23329.05432072 -.00000320  00000-0 -20428-5 0  9994,2 53420  53.2168 265.4288 0001269  87.2812 272.8326 15.08844309 72014,6917.867,95.437,540.61,538.854,0.0
53420.0,STARLINK-4552,PAYLOAD,2023-11-25 20:22:50,15.0884134,0.0001345,53.2168,261.8609,86.4211,273.6935,0.000192,2.769e-05,0.0,0 STARLINK-4552,1 53420U 22097AJ  23329.84919806  .00002769  00000-0  19200-3 0  9997,2 53420  53.2168 261.8609 0001345  86.4211 273.6935 15.08841340 72590,6917.876,95.437,540.672,538.811,0.0
53420.0,STARLINK-4552,PAYLOAD,2023-11-26 02:44:22,15.08867298,0.0001654,53.2165,260.6731,125.8691,234.2455,0.00053417,8.23e-05,0.0,0 STARLINK-4552,1 53420U 22097AJ  23330.11414743  .00008230  00000-0  53417-3 0  9996,2 53420  53.2165 260.6731 0001654 125.8691 234.2455 15.08867298 72177,6917.797,95.436,540.806,538.518,0.0
53420.0,STARLINK-4552,PAYLOAD,2023-11-27 04:10:36,15.08818227,0.0001478,53.2181,255.9172,92.1916,267.9246,-0.00017133,-3.012e-05,0.0,0 STARLINK-4552,1 53420U 22097AJ  23331.17402878 -.00003012  00000-0 -17133-3 0  9999,2 53420  53.2181 255.9172 0001478  92.1916 267.9246 15.08818227 72338,6917.947,95.439,540.834,538.789,0.0
53420.0,STARLINK-4552,PAYLOAD,2023-11-27 05:45:59,15.08818115,0.0001467,53.218,255.6207,89.8775,270.2385,-0.00017029,-2.995e-05,0.0,0 STARLINK-4552,1 53420U 22097AJ  23331.24026985 -.00002995  00000-0 -17029-3 0  9991,2 53420  53.2180 255.6207 0001467  89.8775 270.2385 15.08818115 72806,6917.947,95.439,540.827,538.797,0.0
53420.0,STARLINK-4552,PAYLOAD,2023-11-28 02:25:56,15.08867569,0.0001367,53.2168,251.7554,119.1506,240.9624,6.7479e-05,7.87e-06,0.0,0 STARLINK-4552,1 53420U 22097AJ  23332.10135013  .00000787  00000-0  67479-4 0  9990,2 53420  53.2168 251.7554 0001367 119.1506 240.9624 15.08867569 72472,6917.796,95.436,540.607,538.715,0.0
53420.0,STARLINK-4552,PAYLOAD,2023-11-29 03:52:08,15.08845887,0.0001547,53.2185,246.9966,80.5162,279.6005,0.00040102,6.101e-05,0.0,0 STARLINK-4552,1 53420U 22097AJ  23333.16120397  .00006101  00000-0  40102-3 0  9995,2 53420  53.2185 246.9966 0001547  80.5162 279.6005 15.08845887 72632,6917.862,95.437,540.798,538.657,0.0
53420.0,STARLINK-4552,PAYLOAD,2023-11-30 00:32:09,15.08844727,0.0001686,53.2177,243.1379,73.8547,286.2631,-0.00011433,-2.107e-05,0.0,0 STARLINK-4552,1 53420U 22097AJ  23334.02233099 -.00002107  00000-0 -11433-3 0  9994,2 53420  53.2177 243.1379 0001686  73.8547 286.2631 15.08844727 72761,6917.866,95.437,540.897,538.565,0.0
53420.0,STARLINK-4552,PAYLOAD,2023-12-01 22:38:20,15.08845386,0.0002505,53.219,234.5103,35.9504,324.1656,0.00039736,6.042e-05,0.0,0 STARLINK-4552,1 53420U 22097AJ  23335.94329414  .00006042  00000-0  39736-3 0  9999,2 53420  53.2190 234.5103 0002505  35.9504 324.1656 15.08845386 73513,6917.864,95.437,541.462,537.996,0.0
53420.0,STARLINK-4552,PAYLOAD,2023-12-02 00:13:42,15.0886833,0.0001324,53.2169,234.2124,102.6543,257.4597,0.00045397,6.95e-05,0.0,0 STARLINK-4552,1 53420U 22097AJ  23336.00951948  .00006950  00000-0  45397-3 0  9998,2 53420  53.2169 234.2124 0001324 102.6543 257.4597 15.08868330 73068,6917.794,95.436,540.575,538.743,0.0
53420.0,STARLINK-4552,PAYLOAD,2023-12-02 03:24:28,15.08872133,0.0001471,53.2172,233.6121,77.8712,282.2445,0.0004905,7.534e-05,0.0,0 STARLINK-4552,1 53420U 22097AJ  23336.14199707  .00007534  00000-0  49050-3 0  9999,2 53420  53.2172 233.6121 0001471  77.8712 282.2445 15.08872133 73543,6917.782,95.436,540.665,538.63,0.0
53420.0,STARLINK-4552,PAYLOAD,2023-12-02 22:29:08,15.08820452,0.0001309,53.2164,230.0478,115.6026,244.5102,-0.00027514,-4.662e-05,0.0,0 STARLINK-4552,1 53420U 22097AJ  23336.93690411 -.00004662  00000-0 -27514-3 0  9996,2 53420  53.2164 230.0478 0001309 115.6026 244.5102 15.08820452 73660,6917.94,95.439,540.711,538.9,0.0
53420.0,STARLINK-4552,PAYLOAD,2023-12-03 03:15:18,15.08820815,0.0001245,53.2163,229.154,111.1696,248.9429,-0.00024313,-4.153e-05,0.0,0 STARLINK-4552,1 53420U 22097AJ  23337.13562586 -.00004153  00000-0 -24313-3 0  9999,2 53420  53.2163 229.1540 0001245 111.1696 248.9429 15.08820815 73237,6917.939,95.439,540.665,538.943,0.0
53420.0,STARLINK-4552,PAYLOAD,2023-12-03 20:44:31,15.08844266,0.0001136,53.2156,225.8867,114.3112,245.7999,-8.5364e-05,-1.646e-05,0.0,0 STARLINK-4552,1 53420U 22097AJ  23337.86425796 -.00001646  00000-0 -85364-4 0  9998,2 53420  53.2156 225.8867 0001136 114.3112 245.7999 15.08844266 73346,6917.867,95.437,540.518,538.946,0.0
53420.0,STARLINK-4552,PAYLOAD,2023-12-04 03:06:04,15.08850472,0.0001699,53.2159,224.6957,142.4271,217.684,6.5619e-05,7.57e-06,0.0,0 STARLINK-4552,1 53420U 22097AJ  23338.12921339  .00000757  00000-0  65619-4 0  9993,2 53420  53.2159 224.6957 0001699 142.4271 217.6840 15.08850472 73381,6917.848,95.437,540.889,538.538,0.0
53420.0,STARLINK-4552,PAYLOAD,2023-12-05 01:21:28,15.08844466,0.0001213,53.2153,220.5296,117.5138,242.5977,0.00032778,4.933e-05,0.0,0 STARLINK-4552,1 53420U 22097AJ  23339.05657991  .00004933  00000-0  32778-3 0  9995,2 53420  53.2153 220.5296 0001213 117.5138 242.5977 15.08844466 73523,6917.867,95.437,540.571,538.893,0.0
53420.0,STARLINK-4552,PAYLOAD,2023-12-05 15:39:56,15.08843417,0.0001485,53.2159,217.8545,132.6692,227.4426,8.8267e-05,1.117e-05,0.0,0 STARLINK-4552,1 53420U 22097AJ  23339.65273891  .00001117  00000-0  88267-4 0  9990,2 53420  53.2159 217.8545 0001485 132.6692 227.4426 15.08843417 74076,6917.87,95.437,540.762,538.708,0.0
53420.0,STARLINK-4552,PAYLOAD,2023-12-06 01:12:15,15.08849105,0.0001406,53.2163,216.0728,131.15,228.9614,9.3788e-05,1.205e-05,0.0,0 STARLINK-4552,1 53420U 22097AJ  23340.05017413  .00001205  00000-0  93788-4 0  9994,2 53420  53.2163 216.0728 0001406 131.1500 228.9614 15.08849105 74132,6917.853,95.437,540.69,538.745,0.0
53420.0,STARLINK-4552,PAYLOAD,2023-12-07 15:21:30,15.08837912,0.0001192,53.2151,208.9353,125.4287,234.6817,1.8599e-05,8e-08,0.0,0 STARLINK-4552,1 53420U 22097AJ  23341.63993964  .00000008  00000-0  18599-4 0  9990,2 53420  53.2151 208.9353 0001192 125.4287 234.6817 15.08837912 73910,6917.887,95.438,540.576,538.927,0.0
53420.0,STARLINK-4552,PAYLOAD,2023-12-08 00:53:49,15.0884193,0.0001106,53.217,207.1528,98.2491,261.8626,8.8469e-05,1.121e-05,0.0,0 STARLINK-4552,1 53420U 22097AJ  23342.03738004  .00001121  00000-0  88469-4 0  9997,2 53420  53.2170 207.1528 0001106  98.2491 261.8626 15.08841930 74438,6917.874,95.437,540.505,538.974,0.0
53420.0,STARLINK-4552,PAYLOAD,2023-12-09 00:44:36,15.08840591,0.0001122,53.2148,202.6918,104.2659,255.8458,8.1717e-05,1.013e-05,0.0,0 STARLINK-4552,1 53420U 22097AJ  23343.03098057  .00001013  00000-0  81717-4 0  9994,2 53420  53.2148 202.6918 0001122 104.2659 255.8458 15.08840591 74122,6917.879,95.438,540.52,538.967,0.0
53420.0,STARLINK-4552,PAYLOAD,2023-12-10 00:35:23,15.08840829,0.0001202,53.2168,198.2302,95.2515,264.8615,2.5239e-05,1.14e-06,0.0,0 STARLINK-4552,1 53420U 22097AJ  23344.02458037  .00000114  00000-0  25239-4 0  9990,2 53420  53.2168 198.2302 0001202  95.2515 264.8615 15.08840829 74736,6917.878,95.438,540.574,538.911,0.0
53420.0,STARLINK-4552,PAYLOAD,2023-12-10 19:40:01,15.08843509,0.0001189,53.2157,194.6624,92.6918,267.421,5.7592e-05,6.29e-06,0.0,0 STARLINK-4552,1 53420U 22097AJ  23344.81945861  .00000629  00000-0  57592-4 0  9991,2 53420  53.2157 194.6624 0001189  92.6918 267.4210 15.08843509 74393,6917.87,95.437,540.557,538.912,0.0
53420.0,STARLINK-4552,PAYLOAD,2023-12-11 19:30:48,15.08838195,0.0001271,53.2157,190.2023,98.253,261.8607,3.7783e-05,3.13e-06,0.0,0 STARLINK-4552,1 53420U 22097AJ  23345.81306463  .00000313  00000-0  37783-4 0  9991,2 53420  53.2157 190.2023 0001271  98.2530 261.8607 15.08838195 74542,6917.886,95.438,540.63,538.872,0.0
53420.0,STARLINK-4552,PAYLOAD,2023-12-12 20:56:58,15.08840356,0.0001249,53.2157,185.4448,92.7072,267.4063,6.0548e-05,6.76e-06,0.0,0 STARLINK-4552,1 53420U 22097AJ  23346.87290422  .00000676  00000-0  60548-4 0  9992,2 53420  53.2157 185.4448 0001249  92.7072 267.4063 15.08840356 75163,6917.879,95.438,540.608,538.88,0.0
53420.0,STARLINK-4552,PAYLOAD,2023-12-13 20:47:45,15.0884402,0.000128,53.216,180.984,90.8218,269.2921,0.00012606,1.719e-05,0.0,0 STARLINK-4552,1 53420U 22097AJ  23347.86649965  .00001719  00000-0  12606-3 0  9992,2 53420  53.2160 180.9840 0001280  90.8218 269.2921 15.08844020 75311,6917.868,95.437,540.619,538.848,0.0
53420.0,STARLINK-4552,PAYLOAD,2023-12-14 19:03:09,15.08841466,0.0001388,53.2161,176.8202,83.0311,277.0839,5.4663e-05,5.82e-06,0.0,0 STARLINK-4552,1 53420U 22097AJ  23348.79386419  .00000582  00000-0  54663-4 0  9994,2 53420  53.2161 176.8202 0001388  83.0311 277.0839 15.08841466 74994,6917.876,95.437,540.701,538.781,0.0
53420.0,STARLINK-4552,PAYLOAD,2023-12-15 18:53:57,15.08839578,0.0001374,53.2156,172.3608,84.7754,275.3395,1.3923e-05,-6.6e-07,0.0,0 STARLINK-4552,1 53420U 22097AJ  23349.78746597 -.00000066  00000-0  13923-4 0  9993,2 53420  53.2156 172.3608 0001374  84.7754 275.3395 15.08839578 75601,6917.882,95.438,540.697,538.796,0.0
53420.0,STARLINK-4552,PAYLOAD,2023-12-16 12:23:11,15.08841006,0.0001327,53.2151,169.0906,81.1797,278.9345,9.7715e-05,1.268e-05,0.0,0 STARLINK-4552,1 53420U 22097AJ  23350.51610316  .00001268  00000-0  97715-4 0  9990,2 53420  53.2151 169.0906 0001327  81.1797 278.9345 15.08841006 75711,6917.877,95.437,540.66,538.824,0.0
53420.0,STARLINK-4552,PAYLOAD,2023-12-16 18:44:43,15.08843459,0.0001315,53.2153,167.9005,84.6206,275.4936,0.00011335,1.517e-05,0.0,0 STARLINK-4552,1 53420U 22097AJ  23350.78106113  .00001517  00000-0  11335-3 0  9994,2 53420  53.2153 167.9005 0001315  84.6206 275.4936 15.08843459 75295,6917.87,95.437,540.645,538.825,0.0
